NORAD_CAT_ID,OBJECT_NAME,OBJECT_TYPE,EPOCH,MEAN_MOTION,ECCENTRICITY,INCLINATION,RA_OF_ASC_NODE,ARG_OF_PERICENTER,MEAN_ANOMALY,BSTAR,MEAN_MOTION_DOT,MEAN_MOTION_DDOT,TLE_LINE0,TLE_LINE1,TLE_LINE2,SEMIMAJOR_AXIS,PERIOD,APOGEE,PERIGEE,DECAYED
53422.0,STARLINK-4546,PAYLOAD,2024-07-18 12:34:34,15.08857294,0.0001492,53.2161,283.8846,80.468,279.6481,0.00040908,6.232e-05,0.0,0 STARLINK-4546,1 53422U 22097AL  24200.52401438  .00006232  00000-0  40908-3 0  9998,2 53422  53.2161 283.8846 0001492  80.4680 279.6481 15.08857294107719,6917.828,95.436,540.725,538.66,0.0
53422.0,STARLINK-4546,PAYLOAD,2024-07-19 12:25:22,15.08837803,0.000145,53.2156,279.4252,77.7222,282.3932,-3.0814e-05,-7.78e-06,0.0,0 STARLINK-4546,1 53422U 22097AL  24201.51762216 -.00000778  00000-0 -30814-4 0  9999,2 53422  53.2156 279.4252 0001450  77.7222 282.3932 15.08837803107862,6917.887,95.438,540.755,538.749,0.0
53422.0,STARLINK-4546,PAYLOAD,2024-07-19 21:57:41,15.08843232,0.0001306,53.2157,277.6406,87.0026,273.1115,0.00016895,2.402e-05,0.0,0 STARLINK-4546,1 53422U 22097AL  24201.91506128  .00002402  00000-0  16895-3 0  9997,2 53422  53.2157 277.6406 0001306  87.0026 273.1115 15.08843232108405,6917.871,95.437,540.639,538.832,0.0
53422.0,STARLINK-4546,PAYLOAD,2024-07-20 12:16:09,15.08853214,0.0001331,53.2155,274.9651,92.7884,267.326,0.00060799,9.405e-05,0.0,0 STARLINK-4546,1 53422U 22097AL  24202.51121921  .00009405  00000-0  60799-3 0  9990,2 53422  53.2155 274.9651 0001331  92.7884 267.3260 15.08853214108012,6917.84,95.437,540.626,538.784,0.0
53422.0,STARLINK-4546,PAYLOAD,2024-07-20 21:48:28,15.08846424,0.0001557,53.2152,273.1804,82.9468,277.1701,0.000491,7.536e-05,0.0,0 STARLINK-4546,1 53422U 22097AL  24202.90866139  .00007536  00000-0  49100-3 0  9996,2 53422  53.2152 273.1804 0001557  82.9468 277.1701 15.08846424108552,6917.861,95.437,540.803,538.649,0.0
53422.0,STARLINK-4546,PAYLOAD,2024-07-21 04:10:00,15.08844953,0.0001694,53.215,271.9917,85.6032,274.5154,0.00019726,2.853e-05,0.0,0 STARLINK-4546,1 53422U 22097AL  24203.17362077  .00002853  00000-0  19726-3 0  9996,2 53422  53.2150 271.9917 0001694  85.6032 274.5154 15.08844953108110,6917.865,95.437,540.902,538.558,0.0
53422.0,STARLINK-4546,PAYLOAD,2024-07-21 12:06:56,15.08843975,0.000143,53.2144,270.5041,85.3456,274.7699,0.00017922,2.566e-05,0.0,0 STARLINK-4546,1 53422U 22097AL  24203.50482115  .00002566  00000-0  17922-3 0  9996,2 53422  53.2144 270.5041 0001430  85.3456 274.7699 15.08843975108648,6917.868,95.437,540.722,538.744,0.0
53422.0,STARLINK-4546,PAYLOAD,2024-07-22 04:00:48,15.08840847,0.0001404,53.2149,267.5302,89.5145,270.6008,8.8138e-05,1.115e-05,0.0,0 STARLINK-4546,1 53422U 22097AL  24204.16722297  .00001115  00000-0  88138-4 0  9994,2 53422  53.2149 267.5302 0001404  89.5145 270.6008 15.08840847108263,6917.878,95.438,540.714,538.772,0.0
53422.0,STARLINK-4546,PAYLOAD,2024-07-22 10:22:20,15.0883885,0.000158,53.2145,266.3414,64.9326,295.183,6.0988e-05,6.83e-06,0.0,0 STARLINK-4546,1 53422U 22097AL  24204.43218541  .00000683  00000-0  60988-4 0  9998,2 53422  53.2145 266.3414 0001580  64.9326 295.1830 15.08838850108786,6917.884,95.438,540.842,538.656,0.0
53422.0,STARLINK-4546,PAYLOAD,2024-07-23 03:51:35,15.08837809,0.0001602,53.2138,263.0696,78.2701,281.847,0.00015754,2.22e-05,0.0,0 STARLINK-4546,1 53422U 22097AL  24205.16082843  .00002220  00000-0  15754-3 0  9992,2 53422  53.2138 263.0696 0001602  78.2701 281.8470 15.08837809108419,6917.887,95.438,540.86,538.644,0.0
53422.0,STARLINK-4546,PAYLOAD,2024-07-23 10:13:08,15.08839075,0.000143,53.2135,261.8789,91.8314,268.2842,0.00014489,2.019e-05,0.0,0 STARLINK-4546,1 53422U 22097AL  24205.42578808  .00002019  00000-0  14489-3 0  9992,2 53422  53.2135 261.8789 0001430  91.8314 268.2842 15.08839075108931,6917.883,95.438,540.737,538.759,0.0
53422.0,STARLINK-4546,PAYLOAD,2024-07-24 10:03:56,15.08829949,0.0001435,53.2153,257.418,100.4856,259.6298,2.7208e-05,1.45e-06,0.0,0 STARLINK-4546,1 53422U 22097AL  24206.41939878  .00000145  00000-0  27208-4 0  9992,2 53422  53.2153 257.4180 0001435 100.4856 259.6298 15.08829949108602,6917.911,95.438,540.769,538.783,0.0
53422.0,STARLINK-4546,PAYLOAD,2024-07-25 06:43:56,15.08839561,0.0001225,53.2152,253.5538,96.9973,263.1159,0.00015008,2.101e-05,0.0,0 STARLINK-4546,1 53422U 22097AL  24207.28051299  .00002101  00000-0  15008-3 0  9998,2 53422  53.2152 253.5538 0001225  96.9973 263.1159 15.08839561109216,6917.882,95.438,540.594,538.899,0.0
53422.0,STARLINK-4546,PAYLOAD,2024-07-25 08:19:19,15.08843673,0.0001373,53.2154,253.2555,97.4901,262.6247,0.00015963,2.254e-05,0.0,0 STARLINK-4546,1 53422U 22097AL  24207.34675041  .00002254  00000-0  15963-3 0  9991,2 53422  53.2154 253.2555 0001373  97.4901 262.6247 15.08843673108743,6917.869,95.437,540.684,538.784,0.0
53422.0,STARLINK-4546,PAYLOAD,2024-07-26 09:45:29,15.08852226,0.00014,53.2148,248.4992,93.5523,266.5629,0.00030098,4.507e-05,0.0,0 STARLINK-4546,1 53422U 22097AL  24208.40658691  .00004507  00000-0  30098-3 0  9990,2 53422  53.2148 248.4992 0001400  93.5523 266.5629 15.08852226108904,6917.843,95.437,540.677,538.74,0.0
53422.0,STARLINK-4546,PAYLOAD,2024-07-26 19:17:48,15.0884361,0.0001424,53.2137,246.7135,86.7749,273.3407,0.00023189,3.405e-05,0.0,0 STARLINK-4546,1 53422U 22097AL  24208.80402944  .00003405  00000-0  23189-3 0  9991,2 53422  53.2137 246.7135 0001424  86.7749 273.3407 15.08843610108965,6917.869,95.437,540.719,538.749,0.0
53422.0,STARLINK-4546,PAYLOAD,2024-07-27 06:25:29,15.08845316,0.0001597,53.2142,244.6325,91.9405,268.177,-0.00016184,-2.863e-05,0.0,0 STARLINK-4546,1 53422U 22097AL  24209.26770619 -.00002863  00000-0 -16184-3 0  9995,2 53422  53.2142 244.6325 0001597  91.9405 268.1770 15.08845316109519,6917.864,95.437,540.834,538.624,0.0
53422.0,STARLINK-4546,PAYLOAD,2024-07-27 11:11:39,15.08843723,0.0001495,53.2157,243.741,93.7891,266.3272,3.2804e-05,2.34e-06,0.0,0 STARLINK-4546,1 53422U 22097AL  24209.46642924  .00000234  00000-0  32804-4 0  9990,2 53422  53.2157 243.7410 0001495  93.7891 266.3272 15.08843723109546,6917.869,95.437,540.768,538.7,0.0
53422.0,STARLINK-4546,PAYLOAD,2024-07-28 09:27:03,15.08837674,0.0001555,53.2153,239.579,97.8937,262.2232,-6.2982e-05,-1.29e-05,0.0,0 STARLINK-4546,1 53422U 22097AL  24210.39379515 -.00001290  00000-0 -62982-4 0  9992,2 53422  53.2153 239.5790 0001555  97.8937 262.2232 15.08837674109201,6917.887,95.438,540.828,538.677,0.0
53422.0,STARLINK-4546,PAYLOAD,2024-07-29 10:53:13,15.08840577,0.0001522,53.2148,234.816,88.3971,271.7195,9.703e-05,1.257e-05,0.0,0 STARLINK-4546,1 53422U 22097AL  24211.45362998  .00001257  00000-0  97030-4 0  9990,2 53422  53.2148 234.8160 0001522  88.3971 271.7195 15.08840577109367,6917.879,95.438,540.797,538.691,0.0
53422.0,STARLINK-4546,PAYLOAD,2024-07-29 18:50:09,15.08839939,0.0001564,53.2154,233.3295,86.8621,273.255,7.4892e-05,9.04e-06,0.0,0 STARLINK-4546,1 53422U 22097AL  24211.78483165  .00000904  00000-0  74892-4 0  9995,2 53422  53.2154 233.3295 0001564  86.8621 273.2550 15.08839939109898,6917.881,95.438,540.828,538.664,0.0
53422.0,STARLINK-4546,PAYLOAD,2024-07-30 07:33:14,15.08837285,0.000149,53.2149,230.9492,91.9951,268.1212,7.601e-05,9.22e-06,0.0,0 STARLINK-4546,1 53422U 22097AL  24212.31475429  .00000922  00000-0  76010-4 0  9993,2 53422  53.2149 230.9492 0001490  91.9951 268.1212 15.08837285109491,6917.889,95.438,540.784,538.723,0.0
53422.0,STARLINK-4546,PAYLOAD,2024-07-30 18:40:56,15.08841815,0.0001519,53.2149,228.8687,89.5625,270.5542,8.9039e-05,1.129e-05,0.0,0 STARLINK-4546,1 53422U 22097AL  24212.77843183  .00001129  00000-0  89039-4 0  9994,2 53422  53.2149 228.8687 0001519  89.5625 270.5542 15.08841815110046,6917.875,95.437,540.791,538.689,0.0
53422.0,STARLINK-4546,PAYLOAD,2024-07-31 07:24:01,15.08845317,0.0001539,53.2151,226.4896,89.5651,270.5518,6.4393e-05,7.37e-06,0.0,0 STARLINK-4546,1 53422U 22097AL  24213.30834997  .00000737  00000-0  64393-4 0  9997,2 53422  53.2151 226.4896 0001539  89.5651 270.5518 15.08845317110129,6917.864,95.437,540.794,538.664,0.0
53422.0,STARLINK-4546,PAYLOAD,2024-07-31 18:31:43,15.08843273,0.0001525,53.215,224.4081,89.3802,270.7365,6.1442e-05,6.9e-06,0.0,0 STARLINK-4546,1 53422U 22097AL  24213.77203003  .00000690  00000-0  61442-4 0  9996,2 53422  53.2150 224.4081 0001525  89.3802 270.7365 15.08843273109717,6917.87,95.437,540.79,538.68,0.0
53422.0,STARLINK-4546,PAYLOAD,2024-08-01 10:25:34,15.08842126,0.0001573,53.2157,221.4341,91.8213,268.2959,6.2269e-05,7.03e-06,0.0,0 STARLINK-4546,1 53422U 22097AL  24214.43443048  .00000703  00000-0  62269-4 0  9998,2 53422  53.2157 221.4341 0001573  91.8213 268.2959 15.08842126110299,6917.874,95.437,540.827,538.651,0.0
53422.0,STARLINK-4546,PAYLOAD,2024-08-02 05:30:12,15.08841171,0.0001542,53.2156,217.8648,97.9116,262.2052,1.0835e-05,-1.16e-06,0.0,0 STARLINK-4546,1 53422U 22097AL  24215.22931177 -.00000116  00000-0  10835-4 0  9992,2 53422  53.2156 217.8648 0001542  97.9116 262.2052 15.08841171109938,6917.877,95.437,540.809,538.675,0.0
53422.0,STARLINK-4546,PAYLOAD,2024-08-02 07:05:35,15.08839448,0.0001546,53.2155,217.5677,100.6514,259.4652,2.6391e-05,1.32e-06,0.0,0 STARLINK-4546,1 53422U 22097AL  24215.29555206  .00000132  00000-0  26391-4 0  9995,2 53422  53.2155 217.5677 0001546 100.6514 259.4652 15.08839448110428,6917.882,95.438,540.817,538.678,0.0
53422.0,STARLINK-4546,PAYLOAD,2024-08-02 16:37:54,15.08838794,0.0001541,53.2155,215.7837,98.9876,261.1291,1.851e-05,7e-08,0.0,0 STARLINK-4546,1 53422U 22097AL  24215.69299319  .00000007  00000-0  18510-4 0  9994,2 53422  53.2155 215.7837 0001541  98.9876 261.1291 15.08838794110489,6917.884,95.438,540.815,538.683,0.0
53422.0,STARLINK-4546,PAYLOAD,2024-08-03 06:56:22,15.08839391,0.0001476,53.2154,213.1086,97.6063,262.5096,4.0394e-05,3.55e-06,0.0,0 STARLINK-4546,1 53422U 22097AL  24216.28915252  .00000355  00000-0  40394-4 0  9992,2 53422  53.2154 213.1086 0001476  97.6063 262.5096 15.08839391110096,6917.882,95.438,540.768,538.726,0.0
